$$SOE
2460728.500000000, A.D. 2025-Feb-22 00:00:00.0000, -4.202101720908401E+09, 3.477916531155633E+09, 5.489088517712908E+08,
2460735.500000000, A.D. 2025-Mar-01 00:00:00.0000, -4.204489828478806E+09, 3.475969866988001E+09, 5.487307210729928E+08,
2460742.500000000, A.D. 2025-Mar-08 00:00:00.0000, -4.206876699227898E+09, 3.474022088758977E+09, 5.485524286871567E+08,
2460749.500000000, A.D. 2025-Mar-15 00:00:00.0000, -4.209262328418438E+09, 3.472073199360942E+09, 5.483739744003804E+08,
2460756.500000000, A.D. 2025-Mar-22 00:00:00.0000, -4.211646712484533E+09, 3.470123203828689E+09, 5.481953582477376E+08,
2460763.500000000, A.D. 2025-Mar-29 00:00:00.0000, -4.214029849892705E+09, 3.468172107507287E+09, 5.480165804479146E+08,
2460770.500000000, A.D. 2025-Apr-05 00:00:00.0000, -4.216411740308385E+09, 3.466219915103664E+09, 5.478376412559252E+08,
2460777.500000000, A.D. 2025-Apr-12 00:00:00.0000, -4.218792383993791E+09, 3.464266630726119E+09, 5.476585409182541E+08,
2460784.500000000, A.D. 2025-Apr-19 00:00:00.0000, -4.221171781624368E+09, 3.462312258030681E+09, 5.474792796752877E+08,
2460791.500000000, A.D. 2025-Apr-26 00:00:00.0000, -4.223549934252164E+09, 3.460356800271626E+09, 5.472998577692676E+08,
2460798.500000000, A.D. 2025-May-03 00:00:00.0000, -4.225926843302422E+09, 3.458400260275713E+09, 5.471202754486654E+08,
2460805.500000000, A.D. 2025-May-10 00:00:00.0000, -4.228302510574833E+09, 3.456442640349151E+09, 5.469405329669063E+08,
2460812.500000000, A.D. 2025-May-17 00:00:00.0000, -4.230676938212709E+09, 3.454483942076582E+09, 5.467606305685689E+08,
2460819.500000000, A.D. 2025-May-24 00:00:00.0000, -4.233050128466142E+09, 3.452524165957919E+09, 5.465805684425750E+08,
2460826.500000000, A.D. 2025-May-31 00:00:00.0000, -4.235422082831392E+09, 3.450563311194229E+09, 5.464003466294088E+08,
2460833.500000000, A.D. 2025-Jun-07 00:00:00.0000, -4.237792800967439E+09, 3.448601376827730E+09, 5.462199650175812E+08,
2460840.500000000, A.D. 2025-Jun-14 00:00:00.0000, -4.240162281754251E+09, 3.446638363569197E+09, 5.460394235917203E+08,
2460847.500000000, A.D. 2025-Jun-21 00:00:00.0000, -4.242530525275996E+09, 3.444674273041630E+09, 5.458587225533688E+08,
2460854.500000000, A.D. 2025-Jun-28 00:00:00.0000, -4.244897532601019E+09, 3.442709106205041E+09, 5.456778621718140E+08,
2460861.500000000, A.D. 2025-Jul-05 00:00:00.0000, -4.247263304875278E+09, 3.440742863118954E+09, 5.454968426803429E+08,
2460868.500000000, A.D. 2025-Jul-12 00:00:00.0000, -4.249627842920266E+09, 3.438775543237486E+09, 5.453156642613981E+08,
2460875.500000000, A.D. 2025-Jul-19 00:00:00.0000, -4.251991147145841E+09, 3.436807145662041E+09, 5.451343270563307E+08,
2460882.500000000, A.D. 2025-Jul-26 00:00:00.0000, -4.254353217568010E+09, 3.434837669295210E+09, 5.449528311759510E+08,
2460889.500000000, A.D. 2025-Aug-02 00:00:00.0000, -4.256714053866325E+09, 3.432867112917703E+09, 5.447711767077556E+08,
2460896.500000000, A.D. 2025-Aug-09 00:00:00.0000, -4.259073655457426E+09, 3.430895475173886E+09, 5.445893637166381E+08,
2460903.500000000, A.D. 2025-Aug-16 00:00:00.0000, -4.261432021507825E+09, 3.428922754402983E+09, 5.444073922270236E+08,
2460910.500000000, A.D. 2025-Aug-23 00:00:00.0000, -4.263789150593286E+09, 3.426948948332686E+09, 5.442252621611567E+08,
2460917.500000000, A.D. 2025-Aug-30 00:00:00.0000, -4.266145039675864E+09, 3.424974054349478E+09, 5.440429732619402E+08,
2460924.500000000, A.D. 2025-Sep-06 00:00:00.0000, -4.268499683816738E+09, 3.422998071346100E+09, 5.438605252124088E+08,
2460931.500000000, A.D. 2025-Sep-13 00:00:00.0000, -4.270853078295598E+09, 3.421021000663474E+09, 5.436779179024162E+08,
2460938.500000000, A.D. 2025-Sep-20 00:00:00.0000, -4.273205219863333E+09, 3.419042844482788E+09, 5.434951514081802E+08,
2460945.500000000, A.D. 2025-Sep-27 00:00:00.0000, -4.275556106069496E+09, 3.417063604779489E+09, 5.433122258420987E+08,
2460952.500000000, A.D. 2025-Oct-04 00:00:00.0000, -4.277905734681228E+09, 3.415083283378570E+09, 5.431291413020487E+08,
2460959.500000000, A.D. 2025-Oct-11 00:00:00.0000, -4.280254103567284E+09, 3.413101882168355E+09, 5.429458978774829E+08,
2460966.500000000, A.D. 2025-Oct-18 00:00:00.0000, -4.282601210763519E+09, 3.411119403198622E+09, 5.427624956639156E+08,
2460973.500000000, A.D. 2025-Oct-25 00:00:00.0000, -4.284947054580281E+09, 3.409135848674386E+09, 5.425789347738771E+08,
2460980.500000000, A.D. 2025-Nov-01 00:00:00.0000, -4.287291633712319E+09, 3.407151220861251E+09, 5.423952153418682E+08,
2460987.500000000, A.D. 2025-Nov-08 00:00:00.0000, -4.289634947316694E+09, 3.405165521871375E+09, 5.422113375174367E+08,
2460994.500000000, A.D. 2025-Nov-15 00:00:00.0000, -4.291976994910880E+09, 3.403178753271918E+09, 5.420273014278247E+08,
2461001.500000000, A.D. 2025-Nov-22 00:00:00.0000, -4.294317775688423E+09, 3.401190915736605E+09, 5.418431070910294E+08,
2461008.500000000, A.D. 2025-Nov-29 00:00:00.0000, -4.296657287405426E+09, 3.399202009875752E+09, 5.416587543858621E+08,
2461015.500000000, A.D. 2025-Dec-06 00:00:00.0000, -4.298995527115334E+09, 3.397212038109223E+09, 5.414742432765880E+08,
2461022.500000000, A.D. 2025-Dec-13 00:00:00.0000, -4.301332493318392E+09, 3.395221004212268E+09, 5.412895739767675E+08,
2461029.500000000, A.D. 2025-Dec-20 00:00:00.0000, -4.303668186032656E+09, 3.393228911557816E+09, 5.411047468154042E+08,
2461036.500000000, A.D. 2025-Dec-27 00:00:00.0000, -4.306002605860321E+09, 3.391235762646911E+09, 5.409197621155918E+08,
2461043.500000000, A.D. 2026-Jan-03 00:00:00.0000, -4.308335753508648E+09, 3.389241559312320E+09, 5.407346201691608E+08,
2461050.500000000, A.D. 2026-Jan-10 00:00:00.0000, -4.310667629655680E+09, 3.387246302917053E+09, 5.405493212418296E+08,
2461057.500000000, A.D. 2026-Jan-17 00:00:00.0000, -4.312998234928218E+09, 3.385249994457083E+09, 5.403638655800884E+08,
2461064.500000000, A.D. 2026-Jan-24 00:00:00.0000, -4.315327569914097E+09, 3.383252634591794E+09, 5.401782534146354E+08,
2461071.500000000, A.D. 2026-Jan-31 00:00:00.0000, -4.317655635185315E+09, 3.381254223595675E+09, 5.399924849576995E+08,
2461078.500000000, A.D. 2026-Feb-07 00:00:00.0000, -4.319982431270490E+09, 3.379254761174868E+09, 5.398065603840349E+08,
2461085.500000000, A.D. 2026-Feb-14 00:00:00.0000, -4.322307958323603E+09, 3.377254246134116E+09, 5.396204797712448E+08,
2461092.500000000, A.D. 2026-Feb-21 00:00:00.0000, -4.324632215101452E+09, 3.375252676471981E+09, 5.394342430111334E+08,
2461099.500000000, A.D. 2026-Feb-28 00:00:00.0000, -4.326955198334656E+09, 3.373250051058369E+09, 5.392478498859639E+08,
2461106.500000000, A.D. 2026-Mar-07 00:00:00.0000, -4.329276904550764E+09, 3.371246370944805E+09, 5.390613003391287E+08,
2461113.500000000, A.D. 2026-Mar-14 00:00:00.0000, -4.331597331573763E+09, 3.369241637974813E+09, 5.388745944951198E+08,
2461120.500000000, A.D. 2026-Mar-21 00:00:00.0000, -4.333916477917096E+09, 3.367235853592505E+09, 5.386877325021856E+08,
2461127.500000000, A.D. 2026-Mar-28 00:00:00.0000, -4.336234342079578E+09, 3.365229018878042E+09, 5.385007144661844E+08,
2461134.500000000, A.D. 2026-Apr-04 00:00:00.0000, -4.338550922347959E+09, 3.363221134844317E+09, 5.383135404522269E+08,
2461141.500000000, A.D. 2026-Apr-11 00:00:00.0000, -4.340866216832168E+09, 3.361212202634923E+09, 5.381262104997649E+08,
2461148.500000000, A.D. 2026-Apr-18 00:00:00.0000, -4.343180223573884E+09, 3.359202223616666E+09, 5.379387246361675E+08,
2461155.500000000, A.D. 2026-Apr-25 00:00:00.0000, -4.345492940682321E+09, 3.357191199381330E+09, 5.377510828859808E+08,
2461162.500000000, A.D. 2026-May-02 00:00:00.0000, -4.347804366466236E+09, 3.355179131627075E+09, 5.375632852708361E+08,
2461169.500000000, A.D. 2026-May-09 00:00:00.0000, -4.350114499437161E+09, 3.353166021853224E+09, 5.373753317833214E+08,
2461176.500000000, A.D. 2026-May-16 00:00:00.0000, -4.352423337805538E+09, 3.351151871006828E+09, 5.371872223115890E+08,
2461183.500000000, A.D. 2026-May-23 00:00:00.0000, -4.354730878417637E+09, 3.349136680103407E+09, 5.369989565935733E+08,
2461190.500000000, A.D. 2026-May-30 00:00:00.0000, -4.357037117211501E+09, 3.347120452141458E+09, 5.368105344175580E+08,
2461197.500000000, A.D. 2026-Jun-06 00:00:00.0000, -4.359342051509119E+09, 3.345103192037189E+09, 5.366219558306198E+08,
2461204.500000000, A.D. 2026-Jun-13 00:00:00.0000, -4.361645680478810E+09, 3.343084904778453E+09, 5.364332210348225E+08,
2461211.500000000, A.D. 2026-Jun-20 00:00:00.0000, -4.363948004268839E+09, 3.341065594724015E+09, 5.362443302560575E+08,
2461218.500000000, A.D. 2026-Jun-27 00:00:00.0000, -4.366249023510613E+09, 3.339045265708334E+09, 5.360552837132626E+08,
2461225.500000000, A.D. 2026-Jul-04 00:00:00.0000, -4.368548739191588E+09, 3.337023921176990E+09, 5.358660816244509E+08,
2461232.500000000, A.D. 2026-Jul-11 00:00:00.0000, -4.370847152643950E+09, 3.335001564220906E+09, 5.356767242151797E+08,
2461239.500000000, A.D. 2026-Jul-18 00:00:00.0000, -4.373144265556387E+09, 3.332978197535172E+09, 5.354872117228103E+08,
2461246.500000000, A.D. 2026-Jul-25 00:00:00.0000, -4.375440079984517E+09, 3.330953823305217E+09, 5.352975443943067E+08,
2461253.500000000, A.D. 2026-Aug-01 00:00:00.0000, -4.377734598311891E+09, 3.328928442972333E+09, 5.351077224690239E+08,
2461260.500000000, A.D. 2026-Aug-08 00:00:00.0000, -4.380027822946757E+09, 3.326902056842710E+09, 5.349177461237202E+08,
2461267.500000000, A.D. 2026-Aug-15 00:00:00.0000, -4.382319755339601E+09, 3.324874663990514E+09, 5.347276153784165E+08,
2461274.500000000, A.D. 2026-Aug-22 00:00:00.0000, -4.384610395082618E+09, 3.322846263676445E+09, 5.345373301326714E+08,
2461281.500000000, A.D. 2026-Aug-29 00:00:00.0000, -4.386899741380323E+09, 3.320816856909208E+09, 5.343468904300001E+08,
2461288.500000000, A.D. 2026-Sep-05 00:00:00.0000, -4.389187794757804E+09, 3.318786445281901E+09, 5.341562965203671E+08,
2461295.500000000, A.D. 2026-Sep-12 00:00:00.0000, -4.391474556551731E+09, 3.316755029579161E+09, 5.339655486995502E+08,
$$EOE